[{"OBJECT_NAME":"STARLINK-31687","OBJECT_ID":"2024-093S","EPOCH":"2026-03-09T09:06:51.191424","MEAN_MOTION":15.27565564,"ECCENTRICITY":0.00010751,"INCLINATION":43.0026,"RA_OF_ASC_NODE":211.0201,"ARG_OF_PERICENTER":255.2513,"MEAN_ANOMALY":104.822,"EPHEMERIS_TYPE":0,"CLASSIFICATION_TYPE":"U","NORAD_CAT_ID":59798,"ELEMENT_SET_NO":999,"REV_AT_EPOCH":10264,"BSTAR":0.00011825804,"MEAN_MOTION_DOT":2.992e-5,"MEAN_MOTION_DDOT":0},{"OBJECT_NAME":"CZ-6A DEB","OBJECT_ID":"2022-151TQ","EPOCH":"2026-03-09T06:57:26.684352","MEAN_MOTION":15.22919125,"ECCENTRICITY":0.00409545,"INCLINATION":98.8216,"RA_OF_ASC_NODE":191.4692,"ARG_OF_PERICENTER":160.8215,"MEAN_ANOMALY":199.457,"EPHEMERIS_TYPE":0,"CLASSIFICATION_TYPE":"U","NORAD_CAT_ID":54975,"ELEMENT_SET_NO":999,"REV_AT_EPOCH":17711,"BSTAR":0.0066825196,"MEAN_MOTION_DOT":0.00163663,"MEAN_MOTION_DDOT":0}]
